#cP2022 10 25  0  0  0.00000000      96 ORBIT IGb14 HLM  IGS
## 2233 172800.00000000   900.00000000 59877 0.0000000000000
+   32   G01G02G03G04G05G06G07G08G09G10G11G12G13G14G15G16G17
+        G18G19G20G21G22G23G24G25G26G27G28G29G30G31G32  0  0
+          0  0  0  0  0  0  0  0  0  0  0  0  0  0  0  0  0
+          0  0  0  0  0  0  0  0  0  0  0  0  0  0  0  0  0
+          0  0  0  0  0  0  0  0  0  0  0  0  0  0  0  0  0
++         2  2  2  2  2  3  2  2  2  2  3  2  2  2  2  2  2
++         3  2  2  2  2  2  2  2  2  2  3  2  2  2  2  0  0
++         0  0  0  0  0  0  0  0  0  0  0  0  0  0  0  0  0
++         0  0  0  0  0  0  0  0  0  0  0  0  0  0  0  0  0
++         0  0  0  0  0  0  0  0  0  0  0  0  0  0  0  0  0
%c G  cc GPS ccc cccc cccc cccc cccc ccccc ccccc ccccc ccccc
%c cc cc ccc ccc cccc cccc cccc cccc ccccc ccccc ccccc ccccc
%f  1.2500000  1.025000000  0.00000000000  0.000000000000000
%f  0.0000000  0.000000000  0.00000000000  0.000000000000000
%i    0    0    0    0      0      0      0      0         0
%i    0    0    0    0      0      0      0      0         0
/* RAPID ORBIT COMBINATION FROM WEIGHTED AVERAGE OF:        
/* cod emr esa gfz jpl ngs sio usn whu                      
/* REFERENCED TO IGS TIME (IGST) AND TO WEIGHTED MEAN POLE: 
/* PCV:IGS14_2223 OL/AL:FES2004  NONE     Y  ORB:CMB CLK:CMB
*  2022 10 25  3  0  0.00000000
PG01  13714.792611 -22405.809702  -2634.535221    262.180646  7  7  6  84       
PG02 -12096.323828  23731.077514   1911.470765   -640.927635  6  6  4  89       
PG03  13135.488690 -12312.293181 -19615.975623   -367.786745  5  4  4  77       
PG04   4238.082657 -19911.215716 -17004.781132    -98.040679  8  8  6  88       
PG05 -23260.127519   6787.397365  10839.517638   -101.698592  8  8  4 103       
PG06 -13828.350160  -5434.646338 -21956.433238    500.616860  6  6  5 108       
PG07   1474.461908 -21588.096270  15485.566330    295.196523  5  6  5 117       
PG08  11264.607845 -10808.923826  21401.723294    -90.499035  7  4  2  84       
PG09  -5954.290740 -24576.403747  -8135.089184   -278.506658  7  5  4 101       
PG10  19084.325789  11494.616717  14849.439699     -8.969892  5  6  2  95       
PG11 -19401.575154   5751.077707 -17179.447238    -30.054927  8  9  8  89       
PG12 -14295.800315  11443.068774 -19469.336372   -296.240155  8  6  5 105       
PG13 -15011.217819   1929.905661  21665.575823    412.282560  5  6  7  99       
PG14 -16870.838935 -13216.448654  15769.055975    -91.410154  7  8  7 103       
PG15 -10182.961959  12490.241555  20631.349228    -18.100324  6  8  5 101       
PG16  26064.446964    178.185942   5971.513991   -526.604980  7  6  4 106       
PG17 -12738.307838 -22641.666234  -4904.540520    671.883029  7  5  6 100       
PG18  -1037.822270  20755.725448  16455.782366      2.659311  6  9  7 102       
PG19 -16178.978659 -15124.722832 -15084.837000    228.308876  7  7  6  98       
PG20 -26318.100279    515.323867  -2415.751549    475.620065  7  7  6 113       
PG21  16901.499404 -18621.162010   7841.726497    157.400933  5  2  6  95       
PG22  16758.470259  12493.900633 -16069.512389    351.922643  6  7  6  96       
PG23   8486.128179  14510.828582  20587.194873     -1.136344  5  6  4 112       
PG24 -14310.894919  21961.571649   2142.089611     86.659359  4  2  4  92       
PG25  -1584.342503  15398.025781 -21870.658830    385.825281  5  7  6 106       
PG26  25976.183212   4048.914776  -4952.045886    233.629244  6  6  4 101       
PG27  16591.818349   2065.441940  20512.674912    191.978437  6  3  3  74       
PG28 -22888.971486 -10167.483484   8948.162408    324.377159  9 10  7 118       
PG29   2819.242608  24656.437645  -9389.958175   -562.237101  7  7  8  71       
PG30  -8484.765040 -14399.837959  20685.653332   -537.142659  9  7  7 118       
PG31  15417.898472   4450.552472 -21376.355137   -197.946401  6  7  7 113       
PG32  15755.546514  20070.457705  -7582.838081   -274.134584  7  5  4  70       
*  2022 10 25  3 15  0.00000000
PG01  13936.364083 -22380.668443    293.457487    262.175246  8  7  6  93       
PG02 -12287.017532  23614.018620   -945.594362   -640.926151  6  7  4  98       
PG03  15264.389324 -12107.612037 -18127.549768   -367.789947  5  4  4  66       
PG04   5253.518592 -18132.008911 -18641.911682    -98.035024  8  8  6  80       
PG05 -24373.070029   6567.476758   8277.875935   -101.699658  8  8  4  99       
PG06 -12461.578647  -7563.088338 -22136.910333    500.626163  6  6  5  92       
PG07   2536.534182 -22813.803681  13344.763599    295.192617  6  6  6 108       
PG08  12497.348372  -8657.325145  21725.325730    -90.501405  7  4  2  88       
PG09  -5224.433713 -23756.565699 -10697.712420   -278.501876  7  5  5  88       
PG10  17306.798361  11548.492361  16843.413279     -8.971429  6  5  2  85       
PG11 -18318.469499   3993.907266 -18794.031882    -30.059320  6  8  8  76       
PG12 -16361.913286  11082.965759 -17963.283640   -296.244344  8  6  5 106       
PG13 -15816.496856   -420.702679  21189.399622    412.289104  6  6  7  90       
PG14 -14958.475390 -13239.786933  17567.209992    -91.406259  7  8  7  90       
PG15 -11660.142456  10487.758676  20980.767928    -18.097672  5  8  5 102       
PG16  26581.988754    449.179636   3192.932926   -526.605205  6  6  4 110       
PG17 -12721.829797 -23138.344712  -2049.575747    671.885930  7  4  6  97       
PG18  -2153.921834  22137.861271  14407.479973      2.647119  6  9  7 106       
PG19 -16611.055596 -16621.756817 -12861.970128    228.313373  7  7  6  91       
PG20 -25916.753052    152.400167  -5208.451943    475.617435  6  7  6 110       
PG21  16679.810238 -17615.882167  10474.067684    157.400160  4  4  5  86       
PG22  17279.492350  14209.413762 -14030.933397    351.929052  6  7  6  92       
PG23   6087.108793  14533.873501  21391.870497     -1.136421  5  6  5 108       
PG24 -14422.391820  21397.640516   4929.728230     86.645901  5  2  4  94       
PG25  -4011.162726  15281.238760 -21612.914328    385.828818  5  6  5 102       
PG26  25276.485951   4346.501356  -7616.095670    233.630327  6  6  5 105       
PG27  17594.171768   4151.548213  19376.296126    191.972018  6  4  4  74       
PG28 -21758.449710 -10233.129236  11497.884630    324.372369  9 10  7 114       
PG29   2174.277115  23611.864070 -11923.700204   -562.239696  7  7  8  74       
PG30  -7121.335939 -16268.540263  19768.088533   -537.142523  9  7  7 119       
PG31  14077.531821   6480.786352 -21740.238496   -197.947809  6  7  7 109       
PG32  15884.823481  20823.623400  -4862.596374   -274.145548  7  5  4  67       
*  2022 10 25  3 30  0.00000000
PG01  13994.075958 -22075.961730   3216.255806    262.169928  8  7  6 106       
PG02 -12354.709656  23212.084625  -3786.460478   -640.924762  6  7  3  85       
PG03  17216.967657 -12015.886623 -16329.004968   -367.793147  5  4  4  92       
PG04   6440.580934 -16262.132885 -19957.196007    -98.029336  8  7  6 100       
PG05 -25197.224741   6390.004399   5573.821555   -101.701539  7  8  4  93       
PG06 -11216.987509  -9764.587909 -21934.130200    500.635433  6  5  5  96       
PG07   3415.637878 -23871.738018  10974.118080    295.188995  6  6  6 110       
PG08  13846.580500  -6562.763346  21673.264081    -90.503301  7  3  3  67       
PG09  -4306.348154 -22738.453393 -13076.488262   -278.497014  7  6  5  82       
PG10  15326.262770  11704.677464  18554.249650     -8.972746  6  5  3  83       
PG11 -17241.792600   2043.057561 -20084.723970    -30.063703  6  7  8  65       
PG12 -18260.504250  10843.288733 -16153.155557   -296.248337  7  5  5  94       
PG13 -16715.025602  -2653.815913  20343.839792    412.293923  7  6  7 102       
PG14 -12863.146203 -13356.433245  19064.468618    -91.402459  7  8  7  90       
PG15 -13237.548085   8542.798640  20953.883953    -18.094462  5  8  5  90       
PG16  26798.896014    666.297709    360.685350   -526.605726  5  6  5 114       
PG17 -12584.999618 -23342.498199    841.013819    671.888791  6  4  6  86       
PG18  -3070.444803  23364.820136  12109.573059      2.634815  6 10  6  89       
PG19 -17015.139796 -17856.179271 -10423.358734    228.317712  7  6  6 112       
PG20 -25226.498266   -284.273455  -7910.237351    475.614331  6  7  6 102       
PG21  16387.676621 -16344.305870  12923.424023    157.399525  4  6  6  78       
PG22  17780.655076  15669.812554 -11746.654731    351.935278  6  7  6  92       
PG23   3621.232477  14689.035932  21828.814652     -1.136508  5  6  5 102       
PG24 -14431.705119  20552.701297   7629.667083     86.632401  5  3  5  97       
PG25  -6394.881225  15289.279814 -20992.006123    385.832321  4  6  5 106       
PG26  24302.115589   4699.525248 -10151.889081    233.631428  5  6  5 107       
PG27  18628.879501   6049.650267  17904.196372    191.965563  6  5  4  67       
PG28 -20361.407472 -10334.430877  13851.806086    324.367281  9  9  7 123       
PG29   1350.026979  22357.686265 -14251.792987   -562.242274  7  7  7  87       
PG30  -5909.018859 -18096.645035  18510.885744   -537.142357  9  7  8 115       
PG31  12831.610957   8598.924334 -21735.814607   -197.948982  5  7  7 103       
PG32  15892.006633  21301.707866  -2059.376890   -274.156520  7  5  4  77       
EOF
